#dP2024 10 26  0  0  0.00000000      97 __u+U IGS20 FIT  IAC
## 2337 518400.00000000   900.00000000 60609 0.0000000000000
+  119   C06C07C08C09C10C11C12C13C14C16C19C20C21C22C23C24C25
+        C26C27C28C29C30C32C33C34C35C36C37C38C39C40C41C42C43
+        C44C45E02E03E04E05E06E07E08E09E10E11E12E13E14E15E18
+        E19E21E24E25E26E27E29E30E31E33E34E36G02G03G04G05G06
+        G07G08G09G10G11G12G13G14G15G16G17G18G19G20G21G22G23
+        G24G25G26G27G28G29G30G31G32J02J03J04R01R02R03R04R05
+        R07R08R09R11R12R14R15R16R17R18R19R20R21R22R24R25R26
++         7  7  7  7  7  6  6  7  6  7  5  5  6  5  5  6  6
++         6  5  5  5  6  6  5  6  5  6  6  6  6  6  6  6  6
++         6  6  4  4  4  4  4  4  4  4  4  4  4  4  4  4  4
++         3  4  4  4  4  4  4  4  4  4  4  4  3  3  3  3  3
++         3  3  3  3  3  3  3  3  3  3  3  3  3  3  3  3  3
++         3  3  3  3  3  3  3  3  4 11 11 11  8  6  6  6  6
++         6  7  6  7  6  6  6  6  7  6  7  7  7  7  7  8  8
%c M  cc GPS ccc cccc cccc cccc cccc ccccc ccccc ccccc ccccc
%c cc cc ccc ccc cccc cccc cccc cccc ccccc ccccc ccccc ccccc
%f  1.2500000  1.025000000  0.00000000000  0.000000000000000
%f  0.0000000  0.000000000  0.00000000000  0.000000000000000
%i    0    0    0    0      0      0      0      0         0
%i    0    0    0    0      0      0      0      0         0
/* INFORMATION & ANALYSIS CENTER (IAC)            FINAL DATA
/* S/V CLOCKS ARE ALIGNED TO GNSS TIME                      
/* G:C1WC2W R:C1PC2P E:C1XC5X C:C2IC6I J:C1CC2S             
/* PCV:IGS20_2317 OL/AL:FES2004  NONE     YN ORB:CoN CLK:CoN
*  2024 10 26  7  0  0.00000000
PC06  -2669.002390  25823.316644  33356.387583    366.012252
PC07 -17612.216024  34598.777986 -16608.328865   -257.644652
PC08  -4726.613919  39331.316646 -14080.032687   -707.489028
PC09   4266.577517  28600.017493  31393.378283   -534.152942
PC10 -11140.636155  34649.811360 -21372.565142   -248.482868
PC11  17218.853173  13200.973575 -17464.845130    211.975954
PC12  -4037.614591  15189.143642 -23012.825391   -255.529379
PC13    216.183785  41375.764767  -7018.928772     94.080854
PC14   6867.634153  16280.583816  21613.202579   -354.637940
PC16  -7873.523215  23164.039896  34675.106384    153.085527
PC19 -13643.495571  -7484.350141 -23151.429165   -954.453857
PC20   -392.336227 -21446.329657 -17837.975705   -922.909345
PC21 -14570.302261  23791.905640   1022.770373   -919.161256
PC22 -20012.303660  11685.432046 -15575.299655    162.039540
PC23  17532.428664   -268.325705 -21706.814417   -867.937083
PC24   8116.008652  25872.660155   6513.542683    787.441821
PC25  18580.942010  17861.723995 -10683.887425    543.313272
PC26  -6136.857485  18577.757015  19864.494545   -368.137402
PC27  14153.734277 -13354.961564  19987.776749    387.549847
PC28  26126.934389  -4695.708159   8610.015354    301.190555
PC29 -24084.237673  -8353.433134  11358.548507    353.652264
PC30  -5950.663752 -15806.174017  22208.011282      9.952227
PC32  14450.545645 -23851.215477   -873.956471   -779.976108
PC33  13631.590653   7551.582794  23142.044105   -954.989622
PC34   7996.217326  15573.374413 -21743.243251    550.533369
PC35 -26192.010533   5303.484327  -7993.156032    225.318283
PC36 -18309.316154 -17940.050105  11068.993054    209.857055
PC37   6662.036317 -18348.427713 -19948.471774   -892.960094
PC38  -8936.847261  35733.874927 -20319.346208    187.469726
PC39 -11768.954420  21100.309785  34610.630027    -10.203367
PC40 -25216.208692  29633.987693 -16600.134584    -98.854588
PC41  19939.061826 -10803.092398  16298.814479   -895.100907
PC42  -1092.838524  22449.846249  16590.501552   -501.450096
PC43  23480.928681   8978.546205 -12138.468194     90.174959
PC44 -13739.807203  14007.433013 -19845.464020    633.539151
PC45 -17617.355214   -463.878643  21636.859298   -155.190294
PE02  16838.248369 -10515.408028 -21964.464595    169.843633
PE03  27750.363807 -10136.725223   1729.749288   -149.334180
PE04 -16035.536975  18850.080024  16238.544641    -66.494044
PE05  22875.778375   4343.175693  18270.182965   4796.183184
PE06  -5916.007994  19085.240164  21815.923688    -40.357965
PE07  -4249.982930 -16498.321733 -24209.145461   -149.376405
PE08  16782.466520 -18624.461702 -15739.055741   -357.541289
PE09   4083.333058  16401.940900  24292.850099   -639.838743
PE10   4528.866418  20474.202631 -20884.955369   -665.667300
PE11  14356.185768  22157.866828 -13389.805494   1084.767654
PE12  -4805.612220  16176.156884 -24317.089530  -1267.768256
PE13 -13898.342544 -22128.995943  13915.095597    -26.134937
PE14 -26845.830445  17129.824192  -6049.051163    324.166067
PE15   5467.402990 -15681.907271  24513.928414   -135.324462
PE18  19205.338940 -12545.545127   5062.868207    700.818323
PE19 -28054.960435   8744.612242  -3546.953020    835.231825
PE21 -14548.357074 -11464.533851  23090.150317   -624.631875
PE24   3529.161292  27423.386691 -10550.233676  -1063.756230
PE25  14381.619235  11936.516408 -22945.597710     10.541667
PE26 -24904.576654 -15186.998029  -5048.089524   -229.999455
PE27  -3628.361500 -27394.764334  10626.923686   -487.574904
PE29 -23161.089596  -4232.390168 -17942.406803    -40.619816
PE30   9349.091505 -26968.586799  -7876.929895   -858.468273
PE31  -9295.941466  26953.244174   7952.432800    -40.609331
PE33 -21553.733591   -275.515561 -20283.223558     15.940745
PE34  21301.935627   -180.261274  20546.902061   -142.221638
PE36  24773.762266  15535.951184   4597.843561   -302.261692
PG02  22802.766209  13834.012374  -1579.575457   -328.841306
PG03  12435.181766  11979.049389  20048.035170    581.613361
PG04  20127.840016   3830.780410  16995.064436    468.371663
PG05  -5871.830589 -24226.787561  -9253.253399   -190.990769
PG06   7756.043343 -12399.363494  22239.944274    -66.244034
PG07  22727.352207   4019.380241 -13001.018204    -24.560398
PG08  10556.794762  11755.572636 -21506.826338    395.535480
PG09  24275.516236  -5350.409406   9348.256746    415.217556
PG10 -10331.312372  20053.947196 -13521.009468   -172.040958
PG11  -6609.761902 -19421.707002  16938.249225   -746.593349
PG12 -10356.605903 -16422.350640  17860.383414   -547.742018
PG13   -959.839632 -15369.690532 -21848.524046    683.210885
PG14  13023.812091 -16591.130845 -15957.040951    525.864957
PG15 -12211.996756 -10761.942634 -21528.564258    220.178021
PG16     97.318907  25765.678967  -5712.179878   -145.025449
PG17  21721.466586 -14131.664039   6666.944841    582.312055
PG18 -21748.531666  -2603.548216 -15155.632781   -659.110544
PG19  14971.052260 -16145.322355  14391.528926    555.104694
PG20   -886.932251 -26462.501381   3018.559841    369.317676
PG21  19987.139024  16624.660700  -7302.134283     98.938547
PG22   9881.755395 -23015.340754  -8880.230715    -74.263676
PG23 -14411.630742   6859.233572 -21151.077487    349.711860
PG24 -21459.857331 -15427.706574  -4768.782684   -483.386630
PG25 -15173.276265  -2340.051361  21337.991400    499.375028
PG26  -4773.895227  24898.017038   7062.018400     46.250864
PG27  -1331.056741  16882.103701 -20653.102987    -34.702716
PG28  -9743.264064  11775.930190  21708.347870   -458.430539
PG29 -24342.759159   1986.962494  10550.181150   -568.579489
PG30  16789.319644  -6149.783680 -19571.937893   -294.906450
PG31   1523.563098  17776.323017  19313.828098   -222.812566
PG32 -19370.187269  16172.612155   8165.385656   -582.165326
PJ02 -30618.097107  26916.401312  15704.386529     -1.357026
PJ03 -26605.239996  16372.301614 -23666.140334     -5.325827
PJ04 -25612.564090  33311.267701    470.593126     21.855624
PR01 -13304.331926  20448.394525   7456.428213    102.306645
PR02  -1101.271239  15015.878629  20606.790150    -25.366921
PR03  12722.243473   1532.300228  22108.481356    110.126992
PR04  19130.383025 -12251.186309  11647.682454    261.008703
PR05  15569.041373 -19580.515170  -5065.025325    139.731341
PR07 -12930.862382  -1183.001804 -21909.473495     93.700337
PR08 -19035.314802  12581.082848 -11305.024295     -6.377996
PR09  -8260.098265 -24086.935992    -25.806636    216.875738
PR11 -11172.899814    749.379376  22927.186771      8.380926
PR12  -2294.121618  19303.744304  16531.799427     46.480545
PR14  12965.904544  15195.573139 -15864.839365     27.134550
PR15  10760.263200  -2585.979491 -22964.401193     74.648706
PR16   2216.388171 -19147.469854 -16678.849273     30.245156
PR17  23558.818748   8127.813399  -5303.796413    134.138153
PR18  23027.781916    655.401039  11018.382341    168.721986
PR19  12790.064641  -6209.376102  21181.365055   -296.229593
PR20  -9573.369126 -12194.325766  20261.054708   -120.977202
PR21 -23186.835396  -8677.233910   6225.511439   -145.937829
PR22 -22523.748723   -349.158111 -11931.784213      9.698699
PR24  10576.725283  12117.663900 -19765.389980    -77.510160
PR25 -23400.053916  -8936.913238   4906.050341    -87.534672
PR26 -18811.563258  11516.661611 -12810.735411   -516.568162
EOF
